[{"OBJECT_NAME":"SL-8 R/B","OBJECT_ID":"1979-089B","EPOCH":"2026-03-24T09:07:37.833600","MEAN_MOTION":14.42358572,"ECCENTRICITY":0.0016882,"INCLINATION":74.0678,"RA_OF_ASC_NODE":63.8464,"ARG_OF_PERICENTER":234.7674,"MEAN_ANOMALY":125.1902,"EPHEMERIS_TYPE":0,"CLASSIFICATION_TYPE":"U","NORAD_CAT_ID":11574,"ELEMENT_SET_NO":999,"REV_AT_EPOCH":43822,"BSTAR":7.0326e-5,"MEAN_MOTION_DOT":2.06e-6,"MEAN_MOTION_DDOT":0},{"OBJECT_NAME":"SL-14 R/B","OBJECT_ID":"1980-005B","EPOCH":"2026-03-24T13:26:04.990272","MEAN_MOTION":14.90946148,"ECCENTRICITY":0.0017157,"INCLINATION":82.5117,"RA_OF_ASC_NODE":293.1284,"ARG_OF_PERICENTER":111.8594,"MEAN_ANOMALY":248.4452,"EPHEMERIS_TYPE":0,"CLASSIFICATION_TYPE":"U","NORAD_CAT_ID":11672,"ELEMENT_SET_NO":999,"REV_AT_EPOCH":47870,"BSTAR":5.1473e-5,"MEAN_MOTION_DOT":5.35e-6,"MEAN_MOTION_DDOT":0},{"OBJECT_NAME":"SL-8 R/B","OBJECT_ID":"1981-003B","EPOCH":"2026-03-24T12:01:58.557216","MEAN_MOTION":15.11606305,"ECCENTRICITY":0.0261263,"INCLINATION":82.9352,"RA_OF_ASC_NODE":276.321,"ARG_OF_PERICENTER":127.0555,"MEAN_ANOMALY":235.4883,"EPHEMERIS_TYPE":0,"CLASSIFICATION_TYPE":"U","NORAD_CAT_ID":12139,"ELEMENT_SET_NO":999,"REV_AT_EPOCH":31691,"BSTAR":0.00050844,"MEAN_MOTION_DOT":0.000202,"MEAN_MOTION_DDOT":0},{"OBJECT_NAME":"SL-3 R/B","OBJECT_ID":"1981-046B","EPOCH":"2026-03-24T12:18:51.909984","MEAN_MOTION":15.42351839,"ECCENTRICITY":0.0018439,"INCLINATION":81.2287,"RA_OF_ASC_NODE":271.9358,"ARG_OF_PERICENTER":330.124,"MEAN_ANOMALY":29.8949,"EPHEMERIS_TYPE":0,"CLASSIFICATION_TYPE":"U","NORAD_CAT_ID":12465,"ELEMENT_SET_NO":999,"REV_AT_EPOCH":44071,"BSTAR":0.00025262,"MEAN_MOTION_DOT":0.00010992,"MEAN_MOTION_DDOT":0},{"OBJECT_NAME":"SL-3 R/B","OBJECT_ID":"1981-103B","EPOCH":"2026-03-24T13:40:27.559488","MEAN_MOTION":15.21551427,"ECCENTRICITY":0.0012638,"INCLINATION":81.1607,"RA_OF_ASC_NODE":195.9771,"ARG_OF_PERICENTER":233.1215,"MEAN_ANOMALY":126.8859,"EPHEMERIS_TYPE":0,"CLASSIFICATION_TYPE":"U","NORAD_CAT_ID":12904,"ELEMENT_SET_NO":999,"REV_AT_EPOCH":97549,"BSTAR":0.00023508,"MEAN_MOTION_DOT":5.332e-5,"MEAN_MOTION_DDOT":0},{"OBJECT_NAME":"SL-3 R/B","OBJECT_ID":"1982-013B","EPOCH":"2026-03-24T12:08:44.379744","MEAN_MOTION":15.22149539,"ECCENTRICITY":0.0023411,"INCLINATION":81.1742,"RA_OF_ASC_NODE":143.4049,"ARG_OF_PERICENTER":128.5811,"MEAN_ANOMALY":231.7523,"EPHEMERIS_TYPE":0,"CLASSIFICATION_TYPE":"U","NORAD_CAT_ID":13068,"ELEMENT_SET_NO":999,"REV_AT_EPOCH":40660,"BSTAR":0.00018992,"MEAN_MOTION_DOT":4.413e-5,"MEAN_MOTION_DDOT":0},{"OBJECT_NAME":"SL-3 R/B","OBJECT_ID":"1982-039B","EPOCH":"2026-03-24T11:58:38.707104","MEAN_MOTION":15.10161649,"ECCENTRICITY":0.0028903,"INCLINATION":81.1573,"RA_OF_ASC_NODE":198.8865,"ARG_OF_PERICENTER":275.6851,"MEAN_ANOMALY":84.1079,"EPHEMERIS_TYPE":0,"CLASSIFICATION_TYPE":"U","NORAD_CAT_ID":13154,"ELEMENT_SET_NO":999,"REV_AT_EPOCH":38387,"BSTAR":0.00015087,"MEAN_MOTION_DOT":2.508e-5,"MEAN_MOTION_DDOT":0},{"OBJECT_NAME":"SL-3 R/B","OBJECT_ID":"1982-079B","EPOCH":"2026-03-24T11:55:11.392896","MEAN_MOTION":15.24999278,"ECCENTRICITY":0.0025492,"INCLINATION":81.1482,"RA_OF_ASC_NODE":175.5949,"ARG_OF_PERICENTER":115.983,"MEAN_ANOMALY":244.4034,"EPHEMERIS_TYPE":0,"CLASSIFICATION_TYPE":"U","NORAD_CAT_ID":13403,"ELEMENT_SET_NO":999,"REV_AT_EPOCH":37995,"BSTAR":0.00021158,"MEAN_MOTION_DOT":5.354e-5,"MEAN_MOTION_DDOT":0},{"OBJECT_NAME":"SL-14 R/B","OBJECT_ID":"1982-092B","EPOCH":"2026-03-24T12:42:55.497600","MEAN_MOTION":14.86679265,"ECCENTRICITY":0.0018851,"INCLINATION":82.5666,"RA_OF_ASC_NODE":127.5175,"ARG_OF_PERICENTER":250.4322,"MEAN_ANOMALY":233.0055,"EPHEMERIS_TYPE":0,"CLASSIFICATION_TYPE":"U","NORAD_CAT_ID":13553,"ELEMENT_SET_NO":999,"REV_AT_EPOCH":33113,"BSTAR":4.312e-5,"MEAN_MOTION_DOT":4.08e-6,"MEAN_MOTION_DDOT":0},{"OBJECT_NAME":"SL-3 R/B","OBJECT_ID":"1983-010B","EPOCH":"2026-03-24T10:44:14.302464","MEAN_MOTION":15.4685497,"ECCENTRICITY":0.0016471,"INCLINATION":81.1051,"RA_OF_ASC_NODE":344.1499,"ARG_OF_PERICENTER":1.5574,"MEAN_ANOMALY":358.5719,"EPHEMERIS_TYPE":0,"CLASSIFICATION_TYPE":"U","NORAD_CAT_ID":13819,"ELEMENT_SET_NO":999,"REV_AT_EPOCH":36022,"BSTAR":0.00028661,"MEAN_MOTION_DOT":0.00014508,"MEAN_MOTION_DDOT":0},{"OBJECT_NAME":"SL-3 R/B","OBJECT_ID":"1983-075B","EPOCH":"2026-03-24T10:48:36.743328","MEAN_MOTION":15.38757838,"ECCENTRICITY":0.0021733,"INCLINATION":97.6147,"RA_OF_ASC_NODE":88.5908,"ARG_OF_PERICENTER":171.6141,"MEAN_ANOMALY":188.5472,"EPHEMERIS_TYPE":0,"CLASSIFICATION_TYPE":"U","NORAD_CAT_ID":14208,"ELEMENT_SET_NO":999,"REV_AT_EPOCH":33242,"BSTAR":0.00026208,"MEAN_MOTION_DOT":0.00010034,"MEAN_MOTION_DDOT":0},{"OBJECT_NAME":"COSMOS 1536","OBJECT_ID":"1984-013A","EPOCH":"2026-03-24T11:51:14.019264","MEAN_MOTION":15.24020139,"ECCENTRICITY":0.0012942,"INCLINATION":82.5422,"RA_OF_ASC_NODE":93.1283,"ARG_OF_PERICENTER":224.5765,"MEAN_ANOMALY":135.4432,"EPHEMERIS_TYPE":0,"CLASSIFICATION_TYPE":"U","NORAD_CAT_ID":14699,"ELEMENT_SET_NO":999,"REV_AT_EPOCH":27487,"BSTAR":0.00027616,"MEAN_MOTION_DOT":6.738e-5,"MEAN_MOTION_DDOT":0},{"OBJECT_NAME":"SL-14 R/B","OBJECT_ID":"1984-027B","EPOCH":"2026-03-24T08:56:34.905408","MEAN_MOTION":14.85991036,"ECCENTRICITY":0.0016525,"INCLINATION":82.5406,"RA_OF_ASC_NODE":231.2398,"ARG_OF_PERICENTER":286.2092,"MEAN_ANOMALY":73.7306,"EPHEMERIS_TYPE":0,"CLASSIFICATION_TYPE":"U","NORAD_CAT_ID":14820,"ELEMENT_SET_NO":999,"REV_AT_EPOCH":24981,"BSTAR":5.6456e-5,"MEAN_MOTION_DOT":5.18e-6,"MEAN_MOTION_DDOT":0},{"OBJECT_NAME":"SL-8 R/B","OBJECT_ID":"1985-006B","EPOCH":"2026-03-24T09:49:20.993664","MEAN_MOTION":14.37793719,"ECCENTRICITY":0.001785,"INCLINATION":74.0442,"RA_OF_ASC_NODE":234.0605,"ARG_OF_PERICENTER":147.7791,"MEAN_ANOMALY":275.8883,"EPHEMERIS_TYPE":0,"CLASSIFICATION_TYPE":"U","NORAD_CAT_ID":15483,"ELEMENT_SET_NO":999,"REV_AT_EPOCH":15614,"BSTAR":0.00012058,"MEAN_MOTION_DOT":3.38e-6,"MEAN_MOTION_DDOT":0},{"OBJECT_NAME":"SL-12 R/B(2)","OBJECT_ID":"1985-042D","EPOCH":"2026-03-24T09:45:41.976576","MEAN_MOTION":14.21986348,"ECCENTRICITY":0.0032855,"INCLINATION":71.1077,"RA_OF_ASC_NODE":56.6329,"ARG_OF_PERICENTER":103.7347,"MEAN_ANOMALY":10.1998,"EPHEMERIS_TYPE":0,"CLASSIFICATION_TYPE":"U","NORAD_CAT_ID":15772,"ELEMENT_SET_NO":999,"REV_AT_EPOCH":11648,"BSTAR":9.3335e-5,"MEAN_MOTION_DOT":1.6e-6,"MEAN_MOTION_DDOT":0},{"OBJECT_NAME":"SL-14 R/B","OBJECT_ID":"1985-069B","EPOCH":"2026-03-24T05:14:22.306272","MEAN_MOTION":14.86448522,"ECCENTRICITY":0.001974,"INCLINATION":82.5303,"RA_OF_ASC_NODE":11.2748,"ARG_OF_PERICENTER":140.4885,"MEAN_ANOMALY":219.7775,"EPHEMERIS_TYPE":0,"CLASSIFICATION_TYPE":"U","NORAD_CAT_ID":15945,"ELEMENT_SET_NO":999,"REV_AT_EPOCH":17499,"BSTAR":5.7528e-5,"MEAN_MOTION_DOT":5.34e-6,"MEAN_MOTION_DDOT":0},{"OBJECT_NAME":"SL-16 R/B","OBJECT_ID":"1985-097B","EPOCH":"2026-03-24T09:34:13.121472","MEAN_MOTION":14.16602758,"ECCENTRICITY":0.0009538,"INCLINATION":71.0011,"RA_OF_ASC_NODE":109.5866,"ARG_OF_PERICENTER":242.4171,"MEAN_ANOMALY":215.2382,"EPHEMERIS_TYPE":0,"CLASSIFICATION_TYPE":"U","NORAD_CAT_ID":16182,"ELEMENT_SET_NO":999,"REV_AT_EPOCH":8931,"BSTAR":0.00010334,"MEAN_MOTION_DOT":1.58e-6,"MEAN_MOTION_DDOT":0}]
