SL-8 R/B                
1 11574U 79089B   26083.38029900  .00000206  00000+0  70326-4 0  9990
2 11574  74.0678  63.8464 0016882 234.7674 125.1902 14.42358572438221
SL-14 R/B               
1 11672U 80005B   26083.55977998  .00000535  00000+0  51473-4 0  9994
2 11672  82.5117 293.1284 0017157 111.8594 248.4452 14.90946148478703
SL-8 R/B                
1 12139U 81003B   26083.50137219  .00020200  00000+0  50844-3 0  9992
2 12139  82.9352 276.3210 0261263 127.0555 235.4883 15.11606305316914
SL-3 R/B                
1 12465U 81046B   26083.51310081  .00010992  00000+0  25262-3 0  9995
2 12465  81.2287 271.9358 0018439 330.1240  29.8949 15.42351839440719
SL-3 R/B                
1 12904U 81103B   26083.56976342  .00005332  00000+0  23508-3 0  9993
2 12904  81.1607 195.9771 0012638 233.1215 126.8859 15.21551427975493
SL-3 R/B                
1 13068U 82013B   26083.50606921  .00004413  00000+0  18992-3 0  9993
2 13068  81.1742 143.4049 0023411 128.5811 231.7523 15.22149539406605
SL-3 R/B                
1 13154U 82039B   26083.49905911  .00002508  00000+0  15087-3 0  9991
2 13154  81.1573 198.8865 0028903 275.6851  84.1079 15.10161649383874
SL-3 R/B                
1 13403U 82079B   26083.49665964  .00005354  00000+0  21158-3 0  9991
2 13403  81.1482 175.5949 0025492 115.9830 244.4034 15.24999278379956
SL-14 R/B               
1 13553U 82092B   26083.52980900  .00000408  00000+0  43120-4 0  9995
2 13553  82.5666 127.5175 0018851 250.4322 233.0055 14.86679265331134
SL-3 R/B                
1 13819U 83010B   26083.44738776  .00014508  00000+0  28661-3 0  9992
2 13819  81.1051 344.1499 0016471   1.5574 358.5719 15.46854970360225
SL-3 R/B                
1 14208U 83075B   26083.45042527  .00010034  00000+0  26208-3 0  9994
2 14208  97.6147  88.5908 0021733 171.6141 188.5472 15.38757838332420
COSMOS 1536             
1 14699U 84013A   26083.49391226  .00006738  00000+0  27616-3 0  9998
2 14699  82.5422  93.1283 0012942 224.5765 135.4432 15.24020139274876
SL-14 R/B               
1 14820U 84027B   26083.37262622  .00000518  00000+0  56456-4 0  9998
2 14820  82.5406 231.2398 0016525 286.2092  73.7306 14.85991036249814
SL-8 R/B                
1 15483U 85006B   26083.40927076  .00000338  00000+0  12058-3 0  9996
2 15483  74.0442 234.0605 0017850 147.7791 275.8883 14.37793719156140
SL-12 R/B(2)            
1 15772U 85042D   26083.40673584  .00000160  00000+0  93335-4 0  9990
2 15772  71.1077  56.6329 0032855 103.7347  10.1998 14.21986348116480
SL-14 R/B               
1 15945U 85069B   26083.21831373  .00000534  00000+0  57528-4 0  9991
2 15945  82.5303  11.2748 0019740 140.4885 219.7775 14.86448522174993
SL-16 R/B               
1 16182U 85097B   26083.39876298  .00000158  00000+0  10334-3 0  9995
2 16182  71.0011 109.5866 0009538 242.4171 215.2382 14.16602758 89315
